{
  "version": 0.6,
  "generator": "Overpass API 0.7.55.6 486819c8",
  "osm3s": {
    "timestamp_osm_base": "2019-04-06T10:18:02Z",
    "timestamp_areas_base": "2019-04-06T09:19:02Z",
    "copyright": "The data included in this document is from www.openstreetmap.org. The data is made available under ODbL."
  },
  "elements": [
    {
      "type": "node",
      "id": 3021489963,
      "lat": -9.9760027,
      "lon": -67.8109027,
      "tags": {
        "name": "RADIO DIFUSORA ACREANA",
        "shop": "yes"
      }
    },
    {
      "type": "node",
      "id": 3021489964,
      "lat": -9.9761791,
      "lon": -67.8101593,
      "tags": {
        "name": "FÓRUM",
        "shop": "yes"
      }
    },
    {
      "type": "node",
      "id": 4172873694,
      "lat": -10.5698281,
      "lon": -67.6753065,
      "tags": {
        "addr:street": "Avenida Governador Edmundo Pinto",
        "name": "Borracharia Pacifico",
        "repair": "yes",
        "shop": "tyres"
      }
    },
    {
      "type": "node",
      "id": 4219474492,
      "lat": -7.6289259,
      "lon": -72.8770311,
      "tags": {
        "addr:housenumber": "5531",
        "addr:street": "Avenida Japim",
        "email": "alexsonlimareis@gmail.com",
        "internet_access": "wlan",
        "name": "Distribuidora Reis",
        "opening_hours": "24/7",
        "phone": "6899400699",
        "shop": "beverages",
        "website": "alexsonlimareis@gmail.com"
      }
    },
    {
      "type": "node",
      "id": 4282975593,
      "lat": -10.6505062,
      "lon": -68.5066292,
      "tags": {
        "name": "mercantil",
        "shop": "supermarket"
      }
    },
    {
      "type": "node",
      "id": 4282975594,
      "lat": -10.6496951,
      "lon": -68.5057649,
      "tags": {
        "name": "mercantil",
        "shop": "supermarket"
      }
    },
    {
      "type": "node",
      "id": 4283062889,
      "lat": -10.6534136,
      "lon": -68.4997062,
      "tags": {
        "name": "Supermercado",
        "shop": "supermarket"
      }
    },
    {
      "type": "node",
      "id": 4408154786,
      "lat": -10.1587765,
      "lon": -67.7323071,
      "tags": {
        "addr:city": "Senador Guiomadrd",
        "addr:street": "Rua Senador Eduardo Asmar",
        "name": "Funerária Santa Luzia",
        "shop": "funeral_directors"
      }
    },
    {
      "type": "node",
      "id": 4408165269,
      "lat": -10.1579962,
      "lon": -67.7356871,
      "tags": {
        "name": "Rio Sat - Revendedor SKY",
        "shop": "yes"
      }
    },
    {
      "type": "node",
      "id": 4419656275,
      "lat": -9.9361189,
      "lon": -67.8265308,
      "tags": {
        "addr:city": "Rio Branco",
        "addr:street": "Estrada Porto Acre",
        "name": "Supermercado Vem que Tem",
        "shop": "supermarket"
      }
    },
    {
      "type": "node",
      "id": 4515810257,
      "lat": -10.5675406,
      "lon": -67.6758183,
      "tags": {
        "shop": "bakery"
      }
    },
    {
      "type": "node",
      "id": 4530794588,
      "lat": -9.966263,
      "lon": -67.824043,
      "tags": {
        "name": "7° Batalhão de Engenharia de Construção (7° BEC)",
        "shop": "yes"
      }
    },
    {
      "type": "node",
      "id": 4673793297,
      "lat": -9.9640875,
      "lon": -67.8208358,
      "tags": {
        "addr:city": "Rio Branco",
        "addr:street": "Rua Isaura Parente",
        "name": "Araújo",
        "shop": "supermarket"
      }
    },
    {
      "type": "node",
      "id": 4675593822,
      "lat": -9.9614774,
      "lon": -67.8136045,
      "tags": {
        "name": "Rommanel",
        "shop": "yes"
      }
    },
    {
      "type": "node",
      "id": 4689735180,
      "lat": -11.0277038,
      "lon": -68.7428527,
      "tags": {
        "addr:street": "Avenida Santos Dumont",
        "name": "Lubri Pneus",
        "name:pt": "Lubri Pneus",
        "shop": "car_repair"
      }
    },
    {
      "type": "node",
      "id": 5505498638,
      "lat": -9.9387011,
      "lon": -67.0157078,
      "tags": {
        "name": "Padaria e Mercearia Vilhena",
        "shop": "bakery"
      }
    },
    {
      "type": "node",
      "id": 5522854301,
      "lat": -8.1518136,
      "lon": -70.7315378,
      "tags": {
        "shop": "convenience"
      }
    },
    {
      "type": "node",
      "id": 5669576069,
      "lat": -9.9709303,
      "lon": -67.8150074,
      "tags": {
        "addr:city": "Rio Branco",
        "addr:housenumber": "325",
        "addr:postcode": "69900108",
        "addr:street": "Rua Piauí",
        "addr:suburb": "Centro",
        "beauty": "nails",
        "name": "Esmalteria 1920",
        "opening_hours": "Mo-Sa 09:00-18:00",
        "payment:bitcoin": "yes",
        "payment:cash": "yes",
        "payment:credit_cards": "yes",
        "payment:debit_cards": "yes",
        "phone": "+55 (68) 99203-0057",
        "shop": "beauty"
      }
    },
    {
      "type": "node",
      "id": 5830193687,
      "lat": -9.9785404,
      "lon": -67.8052178,
      "tags": {
        "shop": "bicycle"
      }
    },
    {
      "type": "node",
      "id": 6262679013,
      "lat": -9.9700868,
      "lon": -67.8190513,
      "tags": {
        "addr:housenumber": "115",
        "addr:street": "Rua Coronel Sebastião Dantas",
        "name": "Digicópias",
        "phone": "+556821022993",
        "shop": "copyshop"
      }
    },
    {
      "type": "node",
      "id": 6262679014,
      "lat": -9.968196,
      "lon": -67.8308575,
      "tags": {
        "addr:housenumber": "3795",
        "addr:street": "Avenida Ceará",
        "name": "Agroboi",
        "shop": "hardware"
      }
    },
    {
      "type": "node",
      "id": 6262679464,
      "lat": -9.9584273,
      "lon": -67.8213932,
      "tags": {
        "addr:housenumber": "1930",
        "addr:street": "Avenida Antonio da Rocha Viana",
        "name": "Agroboi",
        "shop": "hardware"
      }
    },
    {
      "type": "way",
      "id": 412769803,
      "nodes": [
        4141085818,
        4141085819,
        4141085820,
        4141085821,
        4141085822,
        6089262356,
        4141085823,
        4141085824,
        4141085825,
        4141085826,
        4141085827,
        4141085828,
        6089262357,
        4141085829,
        4141085818
      ],
      "tags": {
        "building": "yes",
        "name": "Macro",
        "shop": "supermarket"
      }
    },
    {
      "type": "way",
      "id": 412778544,
      "nodes": [
        4141151637,
        4141151638,
        4141151639,
        4141151640,
        4141151641,
        4141151642,
        4141151643,
        4141151644,
        4141151645,
        4141151646,
        4141151637
      ],
      "tags": {
        "building": "yes",
        "landuse_1": "recreation",
        "name": "Via Verde Shopping",
        "shop": "mall",
        "tourism": "attraction"
      }
    },
    {
      "type": "way",
      "id": 444332505,
      "nodes": [
        4418162958,
        4418299009,
        4418299010,
        4418162959,
        4418162960,
        4418162961,
        5337740017,
        4418162963,
        4418162964,
        4418162965,
        4418162958
      ],
      "tags": {
        "addr:city": "Rio Branco",
        "addr:street": "Br-364",
        "building": "yes",
        "name": "Atacadão",
        "shop": "supermarket"
      }
    },
    {
      "type": "way",
      "id": 444400978,
      "nodes": [
        4418803856,
        4418803857,
        4418803858,
        4418803859,
        4418803860,
        4418803861,
        4418803862,
        4418803863,
        4418803856
      ],
      "tags": {
        "addr:city": "Rio Branco",
        "addr:street": "Avenida Ceará",
        "building": "yes",
        "name": "Atacado Araujo",
        "shop": "supermarket"
      }
    },
    {
      "type": "way",
      "id": 444643419,
      "nodes": [
        4421072326,
        4421072327,
        6101806755,
        4421072331,
        4421072326
      ],
      "tags": {
        "addr:city": "Rio Branco",
        "addr:street": "Rua do Aviário",
        "building": "yes",
        "name": "Araújo Supermecados",
        "shop": "supermarket"
      }
    },
    {
      "type": "way",
      "id": 473435167,
      "nodes": [
        4675539619,
        4675539620,
        4675539621,
        4675539622,
        4675539623,
        4675539626,
        4675539619
      ],
      "tags": {
        "building": "yes",
        "landuse": "recreation_ground",
        "landuse_1": "recreation",
        "name": "Galeria META",
        "shop": "mall"
      }
    },
    {
      "type": "way",
      "id": 473435168,
      "nodes": [
        4675539628,
        4675539629,
        4675539630,
        4675539631,
        4675539628
      ],
      "tags": {
        "building": "yes",
        "shop": "mall"
      }
    },
    {
      "type": "way",
      "id": 473435181,
      "nodes": [
        4675539668,
        4675539669,
        4675539670,
        4675539671,
        5943780731,
        5943780730,
        5943780729,
        5943780728,
        4675539672,
        5943780727,
        4675539673,
        4675539675,
        4675539668
      ],
      "tags": {
        "building": "yes",
        "name": "Supermercados Araújo",
        "shop": "supermarket"
      }
    },
    {
      "type": "way",
      "id": 473440648,
      "nodes": [
        4675592456,
        4675592457,
        4675592458,
        4675592459,
        6089114550,
        4675592460,
        4675592461,
        4675592456
      ],
      "tags": {
        "building": "yes",
        "name": "Mercale",
        "shop": "supermarket"
      }
    },
    {
      "type": "way",
      "id": 546426050,
      "nodes": [
        5280576101,
        5280576102,
        5280576103,
        5280576104,
        5280576101
      ],
      "tags": {
        "building": "yes",
        "name": "Banca do Ceará",
        "shop": "newsagent"
      }
    },
    {
      "type": "way",
      "id": 546431889,
      "nodes": [
        5280671941,
        5280815586,
        5280815585,
        5280671943,
        5280671944,
        5280671945,
        5280671941
      ],
      "tags": {
        "building": "yes",
        "shop": "convenience"
      }
    },
    {
      "type": "way",
      "id": 546431890,
      "nodes": [
        5280665821,
        5280671948,
        5280671949,
        5280671950,
        5280665821
      ],
      "tags": {
        "building": "yes",
        "shop": "convenience"
      }
    },
    {
      "type": "way",
      "id": 546440374,
      "nodes": [
        5280785077,
        5280785078,
        5280785079,
        5280785080,
        5280785077
      ],
      "tags": {
        "building": "yes",
        "name": "Belíssima",
        "shop": "fashion"
      }
    },
    {
      "type": "way",
      "id": 546444311,
      "nodes": [
        5280816437,
        5280816438,
        5280816439,
        5280816440,
        5280816437
      ],
      "tags": {
        "building": "yes",
        "name": "Casa Brasilit",
        "shop": "hardware"
      }
    },
    {
      "type": "way",
      "id": 553408635,
      "nodes": [
        5342039651,
        5342039652,
        5342039653,
        5342039654,
        5342039655,
        5342039656,
        5342039651
      ],
      "tags": {
        "building": "yes",
        "name": "Mercado Triunfo 2",
        "shop": "supermarket"
      }
    },
    {
      "type": "way",
      "id": 593589734,
      "nodes": [
        5662579745,
        5662579746,
        5662579735,
        5662579736,
        5662579747,
        5662579748,
        5662579745
      ],
      "tags": {
        "building": "yes",
        "shop": "supermarket"
      }
    },
    {
      "type": "way",
      "id": 593589739,
      "nodes": [
        5662579773,
        5662579774,
        5662579775,
        5662579776,
        5662579777,
        5662579778,
        5662579779,
        5662579780,
        5662579773
      ],
      "tags": {
        "building": "yes",
        "shop": "supermarket"
      }
    },
    {
      "type": "way",
      "id": 593589765,
      "nodes": [
        5662579945,
        5662579946,
        5662579947,
        5662579948,
        5662579949,
        5662579950,
        5662579951,
        5662579952,
        5662579934,
        5662579935,
        5662579938,
        5662579939,
        5662579940,
        5662579941,
        5662579942,
        5662579943,
        5662579944,
        5662579936,
        5662579937,
        5662579945
      ],
      "tags": {
        "building": "yes",
        "shop": "kiosk"
      }
    },
    {
      "type": "way",
      "id": 593589767,
      "nodes": [
        5662579972,
        5662579973,
        5662579974,
        5662579975,
        5662579976,
        5662579977,
        5662579978,
        5662579960,
        5662579961,
        5662579965,
        5662579966,
        5662579967,
        5662579968,
        5662579969,
        5662579970,
        5662579971,
        5662579962,
        5662579963,
        5662579964,
        5662579972
      ],
      "tags": {
        "building": "yes",
        "shop": "kiosk"
      }
    },
    {
      "type": "way",
      "id": 607510952,
      "nodes": [
        5757397792,
        5757397793,
        5757397794,
        5757397795,
        5757397792
      ],
      "tags": {
        "building": "yes",
        "name": "Romera",
        "shop": "furniture"
      }
    },
    {
      "type": "way",
      "id": 607833707,
      "nodes": [
        1485124970,
        1416400856,
        5759712955,
        5759712956,
        5759712957,
        1485125507,
        1485124970
      ],
      "tags": {
        "addr:city": "Rio Branco",
        "addr:street": "Rua Leblon",
        "building": "yes",
        "name": "Supermercado Pague Pouco",
        "shop": "supermarket"
      }
    },
    {
      "type": "way",
      "id": 608145134,
      "nodes": [
        5762343874,
        5762343875,
        5762343876,
        5762343877,
        5762343878,
        5762343879,
        5762343880,
        5762343874
      ],
      "tags": {
        "addr:city": "Rio Branco",
        "addr:street": "Rua Rio de Janeiro",
        "addr:suburb": "Floresta",
        "building": "yes",
        "name": "Supermercado Araújo",
        "shop": "supermarket"
      }
    },
    {
      "type": "way",
      "id": 609640764,
      "nodes": [
        5774321945,
        5774321946,
        5774321947,
        5774321948,
        5774321945
      ],
      "tags": {
        "building": "yes",
        "shop": "supermarket"
      }
    },
    {
      "type": "way",
      "id": 635396521,
      "nodes": [
        5993822623,
        5993822622,
        5993822246,
        5993822487,
        5993820596,
        5993822243,
        5993822623
      ],
      "tags": {
        "name": "Gazin",
        "shop": "bed",
        "wheelchair": "yes"
      }
    },
    {
      "type": "way",
      "id": 648606894,
      "nodes": [
        6089114546,
        6089114547,
        6089114548,
        6089114549,
        6089114546
      ],
      "tags": {
        "building": "yes",
        "name": "Pague Pouco",
        "shop": "supermarket"
      }
    },
    {
      "type": "way",
      "id": 648606895,
      "nodes": [
        6089114551,
        6089114552,
        6089114553,
        6089114554,
        6089114551
      ],
      "tags": {
        "building": "yes",
        "name": "Araújo",
        "shop": "supermarket"
      }
    },
    {
      "type": "way",
      "id": 648606919,
      "nodes": [
        6089115607,
        6089115608,
        6089115609,
        6089115610,
        6089115607
      ],
      "tags": {
        "building": "yes",
        "name": "Havan",
        "shop": "yes"
      }
    },
    {
      "type": "way",
      "id": 648627559,
      "nodes": [
        6089261865,
        6089261866,
        6089261867,
        6089261868,
        6089261865
      ],
      "tags": {
        "building": "yes",
        "name": "Araújo",
        "shop": "supermarket"
      }
    },
    {
      "type": "way",
      "id": 648627601,
      "nodes": [
        6089262391,
        6089262393,
        6089262394,
        6089262390,
        6089262391
      ],
      "tags": {
        "building": "yes",
        "shop": "mall"
      }
    },
    {
      "type": "way",
      "id": 648627612,
      "nodes": [
        6089262411,
        6089262412,
        6089262413,
        6089262414,
        6089262411
      ],
      "tags": {
        "building": "yes",
        "shop": "mall"
      }
    },
    {
      "type": "way",
      "id": 648627616,
      "nodes": [
        6089262417,
        6089262427,
        6089262418,
        6089262419,
        6089262420,
        6089262417
      ],
      "tags": {
        "building": "yes",
        "name": "Lojas Americanas",
        "shop": "department_store"
      }
    },
    {
      "type": "way",
      "id": 648627618,
      "nodes": [
        6089262420,
        6089262421,
        6089262422,
        6089262419,
        6089262420
      ],
      "tags": {
        "building": "yes",
        "name": "Avenida",
        "shop": "fashion"
      }
    },
    {
      "type": "way",
      "id": 648627629,
      "nodes": [
        6089262437,
        6089262438,
        6089262439,
        6089262440,
        6089262437
      ],
      "tags": {
        "building": "yes",
        "shop": "fashion"
      }
    },
    {
      "type": "way",
      "id": 648627641,
      "nodes": [
        6089262458,
        6089262459,
        6089262460,
        6089262461,
        6089262458
      ],
      "tags": {
        "building": "yes",
        "shop": "mall"
      }
    },
    {
      "type": "way",
      "id": 648627676,
      "nodes": [
        6089262532,
        6089262533,
        6089262534,
        6089262535,
        6089262532
      ],
      "tags": {
        "building": "yes",
        "name": "Marisa",
        "shop": "fashion"
      }
    },
    {
      "type": "way",
      "id": 650430853,
      "nodes": [
        6101755158,
        6101755159,
        6101755160,
        6101755161,
        6101755162,
        6101755163,
        6101755158
      ],
      "tags": {
        "building": "yes",
        "name": "Araújo",
        "shop": "supermarket"
      }
    },
    {
      "type": "way",
      "id": 650439533,
      "nodes": [
        6101806720,
        6101806721,
        6101806742,
        6101806730,
        6101806722,
        6101806720
      ],
      "tags": {
        "building": "yes",
        "name": "Varejão Popular - Rede Araújo",
        "shop": "supermarket"
      }
    },
    {
      "type": "way",
      "id": 675577821,
      "nodes": [
        6326669689,
        6326669690,
        6326669691,
        6326669692,
        6326669689
      ],
      "tags": {
        "building": "yes",
        "shop": "kiosk"
      }
    },
    {
      "type": "way",
      "id": 675577825,
      "nodes": [
        6326669732,
        6326669733,
        6326669734,
        6326669735,
        6326669736,
        6326669737,
        6326669738,
        6326669739,
        6326669740,
        6326669741,
        6326669742,
        6326669743,
        6326669744,
        6326669745,
        6326669746,
        6326669747,
        6326669748,
        6326669749,
        6326669750,
        6326669751,
        6326669732
      ],
      "tags": {
        "building": "yes",
        "name": "Copacabana Shopping",
        "shop": "mall"
      }
    },
    {
      "type": "node",
      "id": 5662579773,
      "lat": -7.6254894,
      "lon": -72.6852084
    },
    {
      "type": "node",
      "id": 5662579774,
      "lat": -7.6255133,
      "lon": -72.6850824
    },
    {
      "type": "node",
      "id": 5662579775,
      "lat": -7.6256782,
      "lon": -72.6851012
    },
    {
      "type": "node",
      "id": 5662579776,
      "lat": -7.625734,
      "lon": -72.6849
    },
    {
      "type": "node",
      "id": 5662579777,
      "lat": -7.6260344,
      "lon": -72.684951
    },
    {
      "type": "node",
      "id": 5662579778,
      "lat": -7.6260025,
      "lon": -72.6851602
    },
    {
      "type": "node",
      "id": 5662579779,
      "lat": -7.6259732,
      "lon": -72.6851628
    },
    {
      "type": "node",
      "id": 5662579780,
      "lat": -7.625952,
      "lon": -72.6852889
    },
    {
      "type": "node",
      "id": 5662579735,
      "lat": -7.6350954,
      "lon": -72.6687022
    },
    {
      "type": "node",
      "id": 5662579736,
      "lat": -7.6349913,
      "lon": -72.6687886
    },
    {
      "type": "node",
      "id": 5662579745,
      "lat": -7.6350041,
      "lon": -72.6691539
    },
    {
      "type": "node",
      "id": 5662579746,
      "lat": -7.6352855,
      "lon": -72.6689888
    },
    {
      "type": "node",
      "id": 5662579747,
      "lat": -7.6348391,
      "lon": -72.668579
    },
    {
      "type": "node",
      "id": 5662579748,
      "lat": -7.6347058,
      "lon": -72.6686655
    },
    {
      "type": "node",
      "id": 6326669689,
      "lat": -7.6332496,
      "lon": -72.6722036
    },
    {
      "type": "node",
      "id": 6326669690,
      "lat": -7.6332775,
      "lon": -72.6722425
    },
    {
      "type": "node",
      "id": 6326669691,
      "lat": -7.63332,
      "lon": -72.672217
    },
    {
      "type": "node",
      "id": 6326669692,
      "lat": -7.6332908,
      "lon": -72.6721754
    },
    {
      "type": "node",
      "id": 5662579934,
      "lat": -7.6257159,
      "lon": -72.6770771
    },
    {
      "type": "node",
      "id": 5662579935,
      "lat": -7.6257169,
      "lon": -72.6770603
    },
    {
      "type": "node",
      "id": 5662579936,
      "lat": -7.6258119,
      "lon": -72.6770645
    },
    {
      "type": "node",
      "id": 5662579937,
      "lat": -7.6258116,
      "lon": -72.6770799
    },
    {
      "type": "node",
      "id": 5662579938,
      "lat": -7.6257235,
      "lon": -72.6770448
    },
    {
      "type": "node",
      "id": 5662579939,
      "lat": -7.6257348,
      "lon": -72.6770325
    },
    {
      "type": "node",
      "id": 5662579940,
      "lat": -7.6257496,
      "lon": -72.6770249
    },
    {
      "type": "node",
      "id": 5662579941,
      "lat": -7.6257661,
      "lon": -72.6770227
    },
    {
      "type": "node",
      "id": 5662579942,
      "lat": -7.6257824,
      "lon": -72.6770263
    },
    {
      "type": "node",
      "id": 5662579943,
      "lat": -7.6257965,
      "lon": -72.6770353
    },
    {
      "type": "node",
      "id": 5662579944,
      "lat": -7.6258067,
      "lon": -72.6770486
    },
    {
      "type": "node",
      "id": 5662579945,
      "lat": -7.6258066,
      "lon": -72.6770945
    },
    {
      "type": "node",
      "id": 5662579946,
      "lat": -7.6257974,
      "lon": -72.6771067
    },
    {
      "type": "node",
      "id": 5662579947,
      "lat": -7.6257848,
      "lon": -72.6771155
    },
    {
      "type": "node",
      "id": 5662579948,
      "lat": -7.6257702,
      "lon": -72.6771198
    },
    {
      "type": "node",
      "id": 5662579949,
      "lat": -7.6257549,
      "lon": -72.6771194
    },
    {
      "type": "node",
      "id": 5662579950,
      "lat": -7.6257406,
      "lon": -72.6771141
    },
    {
      "type": "node",
      "id": 5662579951,
      "lat": -7.6257286,
      "lon": -72.6771047
    },
    {
      "type": "node",
      "id": 5662579952,
      "lat": -7.6257201,
      "lon": -72.6770919
    },
    {
      "type": "node",
      "id": 6326669732,
      "lat": -7.6297444,
      "lon": -72.6719099
    },
    {
      "type": "node",
      "id": 6326669733,
      "lat": -7.6299092,
      "lon": -72.6717449
    },
    {
      "type": "node",
      "id": 6326669734,
      "lat": -7.6299797,
      "lon": -72.6718147
    },
    {
      "type": "node",
      "id": 6326669735,
      "lat": -7.6300967,
      "lon": -72.6719313
    },
    {
      "type": "node",
      "id": 6326669736,
      "lat": -7.6301445,
      "lon": -72.6719649
    },
    {
      "type": "node",
      "id": 6326669737,
      "lat": -7.6302788,
      "lon": -72.6720252
    },
    {
      "type": "node",
      "id": 6326669738,
      "lat": -7.6303811,
      "lon": -72.6719997
    },
    {
      "type": "node",
      "id": 6326669739,
      "lat": -7.6310577,
      "lon": -72.6723578
    },
    {
      "type": "node",
      "id": 6326669740,
      "lat": -7.6309952,
      "lon": -72.6724825
    },
    {
      "type": "node",
      "id": 6326669741,
      "lat": -7.6310484,
      "lon": -72.672508
    },
    {
      "type": "node",
      "id": 6326669742,
      "lat": -7.6309726,
      "lon": -72.6726475
    },
    {
      "type": "node",
      "id": 6326669743,
      "lat": -7.6309195,
      "lon": -72.6726207
    },
    {
      "type": "node",
      "id": 6326669744,
      "lat": -7.630853,
      "lon": -72.6727534
    },
    {
      "type": "node",
      "id": 6326669745,
      "lat": -7.6305832,
      "lon": -72.6726099
    },
    {
      "type": "node",
      "id": 6326669746,
      "lat": -7.6305433,
      "lon": -72.672681
    },
    {
      "type": "node",
      "id": 6326669747,
      "lat": -7.6303054,
      "lon": -72.6726233
    },
    {
      "type": "node",
      "id": 6326669748,
      "lat": -7.6300874,
      "lon": -72.6723927
    },
    {
      "type": "node",
      "id": 6326669749,
      "lat": -7.6298973,
      "lon": -72.6721674
    },
    {
      "type": "node",
      "id": 6326669750,
      "lat": -7.629771,
      "lon": -72.6720225
    },
    {
      "type": "node",
      "id": 6326669751,
      "lat": -7.6298122,
      "lon": -72.6719769
    },
    {
      "type": "node",
      "id": 5662579960,
      "lat": -7.6242067,
      "lon": -72.6777789
    },
    {
      "type": "node",
      "id": 5662579961,
      "lat": -7.6242037,
      "lon": -72.6777613
    },
    {
      "type": "node",
      "id": 5662579962,
      "lat": -7.6243045,
      "lon": -72.6777353
    },
    {
      "type": "node",
      "id": 5662579963,
      "lat": -7.6243101,
      "lon": -72.6777521
    },
    {
      "type": "node",
      "id": 5662579964,
      "lat": -7.6243101,
      "lon": -72.6777698
    },
    {
      "type": "node",
      "id": 5662579965,
      "lat": -7.6242064,
      "lon": -72.6777437
    },
    {
      "type": "node",
      "id": 5662579966,
      "lat": -7.6242148,
      "lon": -72.6777279
    },
    {
      "type": "node",
      "id": 5662579967,
      "lat": -7.6242277,
      "lon": -72.6777157
    },
    {
      "type": "node",
      "id": 5662579968,
      "lat": -7.6242439,
      "lon": -72.6777085
    },
    {
      "type": "node",
      "id": 5662579969,
      "lat": -7.6242616,
      "lon": -72.677707
    },
    {
      "type": "node",
      "id": 5662579970,
      "lat": -7.6242788,
      "lon": -72.6777113
    },
    {
      "type": "node",
      "id": 5662579971,
      "lat": -7.6242936,
      "lon": -72.6777211
    },
    {
      "type": "node",
      "id": 5662579972,
      "lat": -7.6243044,
      "lon": -72.6777865
    },
    {
      "type": "node",
      "id": 5662579973,
      "lat": -7.6242936,
      "lon": -72.6778005
    },
    {
      "type": "node",
      "id": 5662579974,
      "lat": -7.6242789,
      "lon": -72.6778103
    },
    {
      "type": "node",
      "id": 5662579975,
      "lat": -7.6242619,
      "lon": -72.6778147
    },
    {
      "type": "node",
      "id": 5662579976,
      "lat": -7.6242444,
      "lon": -72.6778133
    },
    {
      "type": "node",
      "id": 5662579977,
      "lat": -7.6242283,
      "lon": -72.6778063
    },
    {
      "type": "node",
      "id": 5662579978,
      "lat": -7.6242153,
      "lon": -72.6777944
    },
    {
      "type": "node",
      "id": 5280576101,
      "lat": -10.1531808,
      "lon": -67.7386176
    },
    {
      "type": "node",
      "id": 5280576102,
      "lat": -10.1531555,
      "lon": -67.7385596
    },
    {
      "type": "node",
      "id": 5280576103,
      "lat": -10.1531038,
      "lon": -67.7385829
    },
    {
      "type": "node",
      "id": 5280576104,
      "lat": -10.1531291,
      "lon": -67.7386409
    },
    {
      "type": "node",
      "id": 5280671941,
      "lat": -10.1511824,
      "lon": -67.7398325
    },
    {
      "type": "node",
      "id": 5280671943,
      "lat": -10.1510012,
      "lon": -67.7398125
    },
    {
      "type": "node",
      "id": 5280671944,
      "lat": -10.1510278,
      "lon": -67.739874
    },
    {
      "type": "node",
      "id": 5280671945,
      "lat": -10.1511723,
      "lon": -67.7398095
    },
    {
      "type": "node",
      "id": 5280785077,
      "lat": -10.1513174,
      "lon": -67.7411823
    },
    {
      "type": "node",
      "id": 5280785078,
      "lat": -10.1513534,
      "lon": -67.741166
    },
    {
      "type": "node",
      "id": 5280785079,
      "lat": -10.1513381,
      "lon": -67.7411311
    },
    {
      "type": "node",
      "id": 5280785080,
      "lat": -10.1513021,
      "lon": -67.7411474
    },
    {
      "type": "node",
      "id": 5280815585,
      "lat": -10.1511863,
      "lon": -67.7397298
    },
    {
      "type": "node",
      "id": 5280815586,
      "lat": -10.1512229,
      "lon": -67.7398144
    },
    {
      "type": "node",
      "id": 5280816437,
      "lat": -10.1507727,
      "lon": -67.7399885
    },
    {
      "type": "node",
      "id": 5280816438,
      "lat": -10.1509356,
      "lon": -67.7399216
    },
    {
      "type": "node",
      "id": 5280816439,
      "lat": -10.1507801,
      "lon": -67.7395323
    },
    {
      "type": "node",
      "id": 5280816440,
      "lat": -10.1506072,
      "lon": -67.7396069
    },
    {
      "type": "node",
      "id": 5342039651,
      "lat": -10.151177,
      "lon": -67.7412542
    },
    {
      "type": "node",
      "id": 5342039652,
      "lat": -10.1511698,
      "lon": -67.7412369
    },
    {
      "type": "node",
      "id": 5342039653,
      "lat": -10.1511981,
      "lon": -67.7412246
    },
    {
      "type": "node",
      "id": 5342039654,
      "lat": -10.1511306,
      "lon": -67.7410634
    },
    {
      "type": "node",
      "id": 5342039655,
      "lat": -10.1508153,
      "lon": -67.7411996
    },
    {
      "type": "node",
      "id": 5342039656,
      "lat": -10.1508899,
      "lon": -67.7413781
    },
    {
      "type": "node",
      "id": 5757397792,
      "lat": -10.1524425,
      "lon": -67.7391128
    },
    {
      "type": "node",
      "id": 5757397793,
      "lat": -10.1525486,
      "lon": -67.7390681
    },
    {
      "type": "node",
      "id": 5757397794,
      "lat": -10.152419,
      "lon": -67.7387501
    },
    {
      "type": "node",
      "id": 5757397795,
      "lat": -10.1523129,
      "lon": -67.7387948
    },
    {
      "type": "node",
      "id": 5774321945,
      "lat": -10.1523131,
      "lon": -67.7390544
    },
    {
      "type": "node",
      "id": 5774321946,
      "lat": -10.1523945,
      "lon": -67.7390188
    },
    {
      "type": "node",
      "id": 5774321947,
      "lat": -10.1523049,
      "lon": -67.7388072
    },
    {
      "type": "node",
      "id": 5774321948,
      "lat": -10.1522235,
      "lon": -67.7388427
    },
    {
      "type": "node",
      "id": 5280665821,
      "lat": -10.1448421,
      "lon": -67.7414861
    },
    {
      "type": "node",
      "id": 5280671948,
      "lat": -10.1447633,
      "lon": -67.741284
    },
    {
      "type": "node",
      "id": 5280671949,
      "lat": -10.1445942,
      "lon": -67.7413547
    },
    {
      "type": "node",
      "id": 5280671950,
      "lat": -10.1446752,
      "lon": -67.7415547
    },
    {
      "type": "node",
      "id": 5993820596,
      "lat": -10.0029903,
      "lon": -67.8502885
    },
    {
      "type": "node",
      "id": 5993822243,
      "lat": -10.0028635,
      "lon": -67.8496715
    },
    {
      "type": "node",
      "id": 5993822246,
      "lat": -10.0027394,
      "lon": -67.8500766
    },
    {
      "type": "node",
      "id": 5993822487,
      "lat": -10.0027896,
      "lon": -67.8503287
    },
    {
      "type": "node",
      "id": 5993822622,
      "lat": -10.0019932,
      "lon": -67.8501959
    },
    {
      "type": "node",
      "id": 5993822623,
      "lat": -10.0019285,
      "lon": -67.8498486
    },
    {
      "type": "node",
      "id": 4141151637,
      "lat": -9.9847546,
      "lon": -67.8485831
    },
    {
      "type": "node",
      "id": 4141151638,
      "lat": -9.9849546,
      "lon": -67.8472709
    },
    {
      "type": "node",
      "id": 4141151639,
      "lat": -9.9865751,
      "lon": -67.8475274
    },
    {
      "type": "node",
      "id": 4141151640,
      "lat": -9.9865256,
      "lon": -67.84788
    },
    {
      "type": "node",
      "id": 4141151641,
      "lat": -9.9870925,
      "lon": -67.8479665
    },
    {
      "type": "node",
      "id": 4141151642,
      "lat": -9.9869585,
      "lon": -67.8489279
    },
    {
      "type": "node",
      "id": 4141151643,
      "lat": -9.9864566,
      "lon": -67.8488512
    },
    {
      "type": "node",
      "id": 4141151644,
      "lat": -9.9864253,
      "lon": -67.8491437
    },
    {
      "type": "node",
      "id": 4141151645,
      "lat": -9.9848525,
      "lon": -67.8488903
    },
    {
      "type": "node",
      "id": 4141151646,
      "lat": -9.9849017,
      "lon": -67.8486056
    },
    {
      "type": "node",
      "id": 4418162960,
      "lat": -9.9748651,
      "lon": -67.8494759
    },
    {
      "type": "node",
      "id": 6089115607,
      "lat": -9.9761193,
      "lon": -67.8511661
    },
    {
      "type": "node",
      "id": 6089115608,
      "lat": -9.9762225,
      "lon": -67.8503414
    },
    {
      "type": "node",
      "id": 6089115609,
      "lat": -9.9769427,
      "lon": -67.8504326
    },
    {
      "type": "node",
      "id": 6089115610,
      "lat": -9.9768627,
      "lon": -67.851274
    },
    {
      "type": "node",
      "id": 4141085818,
      "lat": -9.9757214,
      "lon": -67.8490341
    },
    {
      "type": "node",
      "id": 4141085819,
      "lat": -9.9759438,
      "lon": -67.8490624
    },
    {
      "type": "node",
      "id": 4141085820,
      "lat": -9.975972,
      "lon": -67.8488336
    },
    {
      "type": "node",
      "id": 4141085821,
      "lat": -9.9761757,
      "lon": -67.8488595
    },
    {
      "type": "node",
      "id": 4141085822,
      "lat": -9.9761833,
      "lon": -67.8487985
    },
    {
      "type": "node",
      "id": 4141085823,
      "lat": -9.9768733,
      "lon": -67.8488863
    },
    {
      "type": "node",
      "id": 4141085824,
      "lat": -9.9768779,
      "lon": -67.8488508
    },
    {
      "type": "node",
      "id": 4141085825,
      "lat": -9.9769314,
      "lon": -67.8488558
    },
    {
      "type": "node",
      "id": 4141085826,
      "lat": -9.9769974,
      "lon": -67.8483211
    },
    {
      "type": "node",
      "id": 4141085827,
      "lat": -9.9759261,
      "lon": -67.8481849
    },
    {
      "type": "node",
      "id": 4141085828,
      "lat": -9.9758627,
      "lon": -67.8486985
    },
    {
      "type": "node",
      "id": 4141085829,
      "lat": -9.9757644,
      "lon": -67.848686
    },
    {
      "type": "node",
      "id": 4418162958,
      "lat": -9.9739616,
      "lon": -67.8482111
    },
    {
      "type": "node",
      "id": 4418162959,
      "lat": -9.9739561,
      "lon": -67.8493969
    },
    {
      "type": "node",
      "id": 4418162961,
      "lat": -9.9749457,
      "lon": -67.8485207
    },
    {
      "type": "node",
      "id": 4418162963,
      "lat": -9.9751119,
      "lon": -67.8481172
    },
    {
      "type": "node",
      "id": 4418162964,
      "lat": -9.9747152,
      "lon": -67.8480827
    },
    {
      "type": "node",
      "id": 4418162965,
      "lat": -9.974699,
      "lon": -67.8482752
    },
    {
      "type": "node",
      "id": 4418299009,
      "lat": -9.9738873,
      "lon": -67.849092
    },
    {
      "type": "node",
      "id": 4418299010,
      "lat": -9.9739811,
      "lon": -67.8491002
    },
    {
      "type": "node",
      "id": 5337740017,
      "lat": -9.9750769,
      "lon": -67.8485321
    },
    {
      "type": "node",
      "id": 6089262356,
      "lat": -9.9766353,
      "lon": -67.848856
    },
    {
      "type": "node",
      "id": 6089262357,
      "lat": -9.9758054,
      "lon": -67.8486912
    },
    {
      "type": "node",
      "id": 4418803856,
      "lat": -9.9622453,
      "lon": -67.8476358
    },
    {
      "type": "node",
      "id": 4418803857,
      "lat": -9.9628158,
      "lon": -67.847907
    },
    {
      "type": "node",
      "id": 4418803858,
      "lat": -9.9627915,
      "lon": -67.8480672
    },
    {
      "type": "node",
      "id": 4418803859,
      "lat": -9.9633256,
      "lon": -67.848363
    },
    {
      "type": "node",
      "id": 4418803860,
      "lat": -9.9633377,
      "lon": -67.8472538
    },
    {
      "type": "node",
      "id": 4418803861,
      "lat": -9.9630343,
      "lon": -67.846921
    },
    {
      "type": "node",
      "id": 4418803862,
      "lat": -9.9624638,
      "lon": -67.8468224
    },
    {
      "type": "node",
      "id": 4418803863,
      "lat": -9.9621482,
      "lon": -67.8476482
    },
    {
      "type": "node",
      "id": 1416400856,
      "lat": -9.9762499,
      "lon": -67.826216
    },
    {
      "type": "node",
      "id": 1485124970,
      "lat": -9.9759524,
      "lon": -67.8264823
    },
    {
      "type": "node",
      "id": 1485125507,
      "lat": -9.9764242,
      "lon": -67.8268967
    },
    {
      "type": "node",
      "id": 5759712955,
      "lat": -9.9764632,
      "lon": -67.8264004
    },
    {
      "type": "node",
      "id": 5759712956,
      "lat": -9.9765318,
      "lon": -67.8263413
    },
    {
      "type": "node",
      "id": 5759712957,
      "lat": -9.9767218,
      "lon": -67.8265655
    },
    {
      "type": "node",
      "id": 5762343874,
      "lat": -9.9732059,
      "lon": -67.8263042
    },
    {
      "type": "node",
      "id": 5762343875,
      "lat": -9.9731583,
      "lon": -67.8266582
    },
    {
      "type": "node",
      "id": 5762343876,
      "lat": -9.9735704,
      "lon": -67.8266582
    },
    {
      "type": "node",
      "id": 5762343877,
      "lat": -9.9735704,
      "lon": -67.8269533
    },
    {
      "type": "node",
      "id": 5762343878,
      "lat": -9.9738875,
      "lon": -67.8269425
    },
    {
      "type": "node",
      "id": 5762343879,
      "lat": -9.9739403,
      "lon": -67.8266636
    },
    {
      "type": "node",
      "id": 5762343880,
      "lat": -9.9739561,
      "lon": -67.8262988
    },
    {
      "type": "node",
      "id": 6089262411,
      "lat": -9.9713739,
      "lon": -67.8172147
    },
    {
      "type": "node",
      "id": 6089262412,
      "lat": -9.9714816,
      "lon": -67.8171623
    },
    {
      "type": "node",
      "id": 6089262413,
      "lat": -9.9717304,
      "lon": -67.8177246
    },
    {
      "type": "node",
      "id": 6089262414,
      "lat": -9.9716166,
      "lon": -67.817777
    },
    {
      "type": "node",
      "id": 4675539668,
      "lat": -9.9815271,
      "lon": -67.8071162
    },
    {
      "type": "node",
      "id": 4675539669,
      "lat": -9.9818266,
      "lon": -67.8069543
    },
    {
      "type": "node",
      "id": 4675539670,
      "lat": -9.9817684,
      "lon": -67.8066029
    },
    {
      "type": "node",
      "id": 4675539671,
      "lat": -9.9816677,
      "lon": -67.806598
    },
    {
      "type": "node",
      "id": 4675539672,
      "lat": -9.9811674,
      "lon": -67.8065282
    },
    {
      "type": "node",
      "id": 4675539673,
      "lat": -9.981172,
      "lon": -67.8066718
    },
    {
      "type": "node",
      "id": 4675539675,
      "lat": -9.9813079,
      "lon": -67.806859
    },
    {
      "type": "node",
      "id": 5943780727,
      "lat": -9.9812389,
      "lon": -67.80661
    },
    {
      "type": "node",
      "id": 5943780728,
      "lat": -9.9812044,
      "lon": -67.8064947
    },
    {
      "type": "node",
      "id": 5943780729,
      "lat": -9.9812345,
      "lon": -67.8065252
    },
    {
      "type": "node",
      "id": 5943780730,
      "lat": -9.981388,
      "lon": -67.8065285
    },
    {
      "type": "node",
      "id": 5943780731,
      "lat": -9.981392,
      "lon": -67.8065758
    },
    {
      "type": "node",
      "id": 6089262417,
      "lat": -9.9722535,
      "lon": -67.811293
    },
    {
      "type": "node",
      "id": 6089262418,
      "lat": -9.9727364,
      "lon": -67.8110595
    },
    {
      "type": "node",
      "id": 6089262419,
      "lat": -9.9728146,
      "lon": -67.8112206
    },
    {
      "type": "node",
      "id": 6089262420,
      "lat": -9.9723363,
      "lon": -67.8114541
    },
    {
      "type": "node",
      "id": 6089262421,
      "lat": -9.9724145,
      "lon": -67.8116222
    },
    {
      "type": "node",
      "id": 6089262422,
      "lat": -9.9728905,
      "lon": -67.8113934
    },
    {
      "type": "node",
      "id": 6089262427,
      "lat": -9.9726954,
      "lon": -67.8110793
    },
    {
      "type": "node",
      "id": 6089262437,
      "lat": -9.9730446,
      "lon": -67.8111085
    },
    {
      "type": "node",
      "id": 6089262438,
      "lat": -9.9731274,
      "lon": -67.8112883
    },
    {
      "type": "node",
      "id": 6089262439,
      "lat": -9.9732585,
      "lon": -67.8112276
    },
    {
      "type": "node",
      "id": 6089262440,
      "lat": -9.9731826,
      "lon": -67.8110501
    },
    {
      "type": "node",
      "id": 4675539619,
      "lat": -9.9761573,
      "lon": -67.8072972
    },
    {
      "type": "node",
      "id": 4675539620,
      "lat": -9.9762515,
      "lon": -67.8075237
    },
    {
      "type": "node",
      "id": 4675539621,
      "lat": -9.9756375,
      "lon": -67.8077805
    },
    {
      "type": "node",
      "id": 4675539622,
      "lat": -9.9752627,
      "lon": -67.8069422
    },
    {
      "type": "node",
      "id": 4675539623,
      "lat": -9.975465,
      "lon": -67.8068535
    },
    {
      "type": "node",
      "id": 4675539626,
      "lat": -9.9757295,
      "lon": -67.8074862
    },
    {
      "type": "node",
      "id": 4675539628,
      "lat": -9.9737472,
      "lon": -67.8048501
    },
    {
      "type": "node",
      "id": 4675539629,
      "lat": -9.9744716,
      "lon": -67.8044881
    },
    {
      "type": "node",
      "id": 4675539630,
      "lat": -9.9742715,
      "lon": -67.8040795
    },
    {
      "type": "node",
      "id": 4675539631,
      "lat": -9.9735356,
      "lon": -67.8044134
    },
    {
      "type": "node",
      "id": 6089262458,
      "lat": -9.9716226,
      "lon": -67.8073665
    },
    {
      "type": "node",
      "id": 6089262459,
      "lat": -9.9721664,
      "lon": -67.8070993
    },
    {
      "type": "node",
      "id": 6089262460,
      "lat": -9.972088,
      "lon": -67.8069436
    },
    {
      "type": "node",
      "id": 6089262461,
      "lat": -9.9716906,
      "lon": -67.8071435
    },
    {
      "type": "node",
      "id": 6089262532,
      "lat": -9.9743445,
      "lon": -67.8095631
    },
    {
      "type": "node",
      "id": 6089262533,
      "lat": -9.9741275,
      "lon": -67.8090748
    },
    {
      "type": "node",
      "id": 6089262534,
      "lat": -9.9743308,
      "lon": -67.8089808
    },
    {
      "type": "node",
      "id": 6089262535,
      "lat": -9.9745417,
      "lon": -67.8094722
    },
    {
      "type": "node",
      "id": 6101806720,
      "lat": -9.9742931,
      "lon": -67.8034666
    },
    {
      "type": "node",
      "id": 6101806721,
      "lat": -9.9738731,
      "lon": -67.8035391
    },
    {
      "type": "node",
      "id": 6101806722,
      "lat": -9.9742324,
      "lon": -67.8031716
    },
    {
      "type": "node",
      "id": 6101806730,
      "lat": -9.9739936,
      "lon": -67.8032242
    },
    {
      "type": "node",
      "id": 6101806742,
      "lat": -9.9738361,
      "lon": -67.8032601
    },
    {
      "type": "node",
      "id": 6089261865,
      "lat": -9.9632639,
      "lon": -67.8407294
    },
    {
      "type": "node",
      "id": 6089261866,
      "lat": -9.9632709,
      "lon": -67.8403595
    },
    {
      "type": "node",
      "id": 6089261867,
      "lat": -9.9640482,
      "lon": -67.8403578
    },
    {
      "type": "node",
      "id": 6089261868,
      "lat": -9.9640447,
      "lon": -67.8407276
    },
    {
      "type": "node",
      "id": 4675592456,
      "lat": -9.959438,
      "lon": -67.8225977
    },
    {
      "type": "node",
      "id": 4675592457,
      "lat": -9.9589256,
      "lon": -67.8217766
    },
    {
      "type": "node",
      "id": 4675592458,
      "lat": -9.9589571,
      "lon": -67.8216292
    },
    {
      "type": "node",
      "id": 4675592459,
      "lat": -9.9594626,
      "lon": -67.8214204
    },
    {
      "type": "node",
      "id": 4675592460,
      "lat": -9.9597726,
      "lon": -67.8222508
    },
    {
      "type": "node",
      "id": 4675592461,
      "lat": -9.9596227,
      "lon": -67.8224349
    },
    {
      "type": "node",
      "id": 6089114550,
      "lat": -9.9595721,
      "lon": -67.8216568
    },
    {
      "type": "node",
      "id": 6089114551,
      "lat": -9.963679,
      "lon": -67.8210219
    },
    {
      "type": "node",
      "id": 6089114552,
      "lat": -9.9644862,
      "lon": -67.8210712
    },
    {
      "type": "node",
      "id": 6089114553,
      "lat": -9.964553,
      "lon": -67.8202793
    },
    {
      "type": "node",
      "id": 6089114554,
      "lat": -9.9637428,
      "lon": -67.8202085
    },
    {
      "type": "node",
      "id": 6089114546,
      "lat": -9.9568163,
      "lon": -67.8167954
    },
    {
      "type": "node",
      "id": 6089114548,
      "lat": -9.9579858,
      "lon": -67.816842
    },
    {
      "type": "node",
      "id": 6089114549,
      "lat": -9.9569925,
      "lon": -67.817267
    },
    {
      "type": "node",
      "id": 6089262390,
      "lat": -9.9634757,
      "lon": -67.8147916
    },
    {
      "type": "node",
      "id": 6089262391,
      "lat": -9.9634241,
      "lon": -67.8146545
    },
    {
      "type": "node",
      "id": 6089262393,
      "lat": -9.9639097,
      "lon": -67.8144435
    },
    {
      "type": "node",
      "id": 6089262394,
      "lat": -9.9639339,
      "lon": -67.814579
    },
    {
      "type": "node",
      "id": 4421072326,
      "lat": -9.968012,
      "lon": -67.8022335
    },
    {
      "type": "node",
      "id": 4421072327,
      "lat": -9.9682194,
      "lon": -67.8026741
    },
    {
      "type": "node",
      "id": 4421072331,
      "lat": -9.9685266,
      "lon": -67.801964
    },
    {
      "type": "node",
      "id": 6101806755,
      "lat": -9.9687396,
      "lon": -67.8023937
    },
    {
      "type": "node",
      "id": 6089114547,
      "lat": -9.957808,
      "lon": -67.8163694
    },
    {
      "type": "node",
      "id": 6101755158,
      "lat": -9.9410697,
      "lon": -67.8157105
    },
    {
      "type": "node",
      "id": 6101755159,
      "lat": -9.9408081,
      "lon": -67.8152277
    },
    {
      "type": "node",
      "id": 6101755160,
      "lat": -9.941104,
      "lon": -67.8150641
    },
    {
      "type": "node",
      "id": 6101755161,
      "lat": -9.941215,
      "lon": -67.8152733
    },
    {
      "type": "node",
      "id": 6101755162,
      "lat": -9.9413418,
      "lon": -67.8152062
    },
    {
      "type": "node",
      "id": 6101755163,
      "lat": -9.9414818,
      "lon": -67.8154718
    }
  ]
}